[
    {
        "Altitude(m)": 604221.2216062765,
        "Argument of Periapsis(deg)": 0.0,
        "Eccentricity": 0.0,
        "Inclination(deg)": 60.0,
        "Latitude(deg)": 14.117344390759305,
        "Longitude(deg)": 43.33412770619355,
        "Mean Anomaly(deg)": 16.363600000000012,
        "RAAN(deg)": 135.0,
        "Satellite Name": "Test1 595",
        "Satellite Number": 595,
        "Semi-Major Axis(m)": 6980739.136638005,
        "Time(s)": 0
    },
    {
        "Altitude(m)": 604235.3632122282,
        "Argument of Periapsis(deg)": 0.00010418945913296404,
        "Eccentricity": 0.0,
        "Inclination(deg)": 60.0,
        "Latitude(deg)": 14.651741676286354,
        "Longitude(deg)": 43.62257374759579,
        "Mean Anomaly(deg)": 16.983706145461838,
        "RAAN(deg)": 134.99957995086024,
        "Satellite Name": "Test1 595",
        "Satellite Number": 595,
        "Semi-Major Axis(m)": 6980739.136638005,
        "Time(s)": 10
    }
]